start=new Date('2021-11-06T00:00:00.000Z').valueOf();
sats=[{"DECAY_DATE":null,"TLE_LINE1":"1 47384U 21005AM  21309.72935265  .00003895  00000-0  28014-3 0  9991","APOAPSIS":"548.305","SEMIMAJOR_AXIS":"6925.310","LAUNCH_DATE":"2021-01-20","GP_ID":"189046087","OBJECT_NAME":"STARLINK-2104","CENTER_NAME":"EARTH","SITE":"AFETR","COUNTRY_CODE":"US","PERIAPSIS":"546.046","OBJECT_ID":"2021-005AM","TIME_SYSTEM":"UTC","BSTAR":"0.00028014000000","CLASSIFICATION_TYPE":"U","RCS_SIZE":"LARGE","FILE":"3204412","MEAN_ANOMALY":"292.0140","EPHEMERIS_TYPE":"0","MEAN_MOTION_DOT":"0.00003895","MEAN_MOTION_DDOT":"0.0000000000000","REF_FRAME":"TEME","ELEMENT_SET_NO":"999","ECCENTRICITY":"0.00016310","EPOCH":"2021-11-05T17:30:16.068960","TLE_LINE2":"2 47384  53.0554 306.7883 0001631  68.1022 292.0140 15.06412482 44576","OBJECT_TYPE":"PAYLOAD","MEAN_MOTION":"15.06412482","RA_OF_ASC_NODE":"306.7883","PERIOD":"95.591","ARG_OF_PERICENTER":"68.1022","REV_AT_EPOCH":"4457","NORAD_CAT_ID":"47384","INCLINATION":"53.0554","MEAN_ELEMENT_THEORY":"SGP4"},{"GP_ID":"189012759","LAUNCH_DATE":"2021-01-20","CENTER_NAME":"EARTH","OBJECT_NAME":"STARLINK-2105","DECAY_DATE":null,"SEMIMAJOR_AXIS":"6925.325","TLE_LINE1":"1 47385U 21005AN  21309.41701540  .00007016  00000-0  48930-3 0  9993","APOAPSIS":"548.217","CLASSIFICATION_TYPE":"U","BSTAR":"0.00048930000000","MEAN_ANOMALY":"291.1708","FILE":"3203969","RCS_SIZE":"LARGE","SITE":"AFETR","COUNTRY_CODE":"US","TIME_SYSTEM":"UTC","OBJECT_ID":"2021-005AN","PERIAPSIS":"546.163","OBJECT_TYPE":"PAYLOAD","TLE_LINE2":"2 47385  53.0538 308.1881 0001483  68.9440 291.1708 15.06407648 44523","EPOCH":"2021-11-05T10:00:30.130560","ECCENTRICITY":"0.00014830","REF_FRAME":"TEME","MEAN_MOTION_DDOT":"0.0000000000000","MEAN_MOTION_DOT":"0.00007016","EPHEMERIS_TYPE":"0","ELEMENT_SET_NO":"999","NORAD_CAT_ID":"47385","REV_AT_EPOCH":"4452","MEAN_ELEMENT_THEORY":"SGP4","INCLINATION":"53.0538","PERIOD":"95.592","ARG_OF_PERICENTER":"68.9440","RA_OF_ASC_NODE":"308.1881","MEAN_MOTION":"15.06407648"},{"ARG_OF_PERICENTER":"73.1027","PERIOD":"95.592","RA_OF_ASC_NODE":"306.8596","MEAN_MOTION":"15.06410040","INCLINATION":"53.0549","MEAN_ELEMENT_THEORY":"SGP4","NORAD_CAT_ID":"47386","REV_AT_EPOCH":"4457","ELEMENT_SET_NO":"999","REF_FRAME":"TEME","MEAN_MOTION_DDOT":"0.0000000000000","EPHEMERIS_TYPE":"0","MEAN_MOTION_DOT":"0.00006810","TLE_LINE2":"2 47386  53.0549 306.8596 0001485  73.1027 287.0125 15.06410040 44577","OBJECT_TYPE":"PAYLOAD","ECCENTRICITY":"0.00014850","EPOCH":"2021-11-05T17:05:07.682208","OBJECT_ID":"2021-005AP","TIME_SYSTEM":"UTC","PERIAPSIS":"546.154","SITE":"AFETR","COUNTRY_CODE":"US","RCS_SIZE":"LARGE","FILE":"3204412","MEAN_ANOMALY":"287.0125","CLASSIFICATION_TYPE":"U","BSTAR":"0.00047553000000","APOAPSIS":"548.211","TLE_LINE1":"1 47386U 21005AP  21309.71189447  .00006810  00000-0  47553-3 0  9994","SEMIMAJOR_AXIS":"6925.318","DECAY_DATE":null,"CENTER_NAME":"EARTH","OBJECT_NAME":"STARLINK-2106","GP_ID":"189047074","LAUNCH_DATE":"2021-01-20"},{"LAUNCH_DATE":"2021-01-20","GP_ID":"189045346","OBJECT_NAME":"STARLINK-2108","CENTER_NAME":"EARTH","DECAY_DATE":null,"SEMIMAJOR_AXIS":"6925.320","TLE_LINE1":"1 47387U 21005AQ  21309.49900847  .00004349  00000-0  31063-3 0  9999","APOAPSIS":"548.084","BSTAR":"0.00031063000000","CLASSIFICATION_TYPE":"U","MEAN_ANOMALY":"286.6242","FILE":"3204412","RCS_SIZE":"LARGE","SITE":"AFETR","COUNTRY_CODE":"US","PERIAPSIS":"546.286","OBJECT_ID":"2021-005AQ","TIME_SYSTEM":"UTC","EPOCH":"2021-11-05T11:58:34.331808","ECCENTRICITY":"0.00012980","OBJECT_TYPE":"PAYLOAD","TLE_LINE2":"2 47387  53.0554 337.8182 0001298  73.4890 286.6242 15.06409236 44112","MEAN_MOTION_DOT":"0.00004349","EPHEMERIS_TYPE":"0","MEAN_MOTION_DDOT":"0.0000000000000","REF_FRAME":"TEME","ELEMENT_SET_NO":"999","REV_AT_EPOCH":"4411","NORAD_CAT_ID":"47387","MEAN_ELEMENT_THEORY":"SGP4","INCLINATION":"53.0554","RA_OF_ASC_NODE":"337.8182","MEAN_MOTION":"15.06409236","ARG_OF_PERICENTER":"73.4890","PERIOD":"95.592"},{"MEAN_MOTION":"15.06428981","RA_OF_ASC_NODE":"336.5619","ARG_OF_PERICENTER":"82.1522","PERIOD":"95.590","INCLINATION":"53.0553","MEAN_ELEMENT_THEORY":"SGP4","REV_AT_EPOCH":"4415","NORAD_CAT_ID":"47388","ELEMENT_SET_NO":"999","EPHEMERIS_TYPE":"0","MEAN_MOTION_DOT":"0.00005322","REF_FRAME":"TEME","MEAN_MOTION_DDOT":"0.0000000000000","ECCENTRICITY":"0.00011720","EPOCH":"2021-11-05T18:41:56.626368","TLE_LINE2":"2 47388  53.0553 336.5619 0001172  82.1522 277.9600 15.06428981 44156","OBJECT_TYPE":"PAYLOAD","PERIAPSIS":"546.313","TIME_SYSTEM":"UTC","OBJECT_ID":"2021-005AR","SITE":"AFETR","COUNTRY_CODE":"US","RCS_SIZE":"LARGE","FILE":"3204412","MEAN_ANOMALY":"277.9600","BSTAR":"0.00037563000000","CLASSIFICATION_TYPE":"U","TLE_LINE1":"1 47388U 21005AR  21309.77912762  .00005322  00000-0  37563-3 0  9993","APOAPSIS":"547.936","SEMIMAJOR_AXIS":"6925.260","DECAY_DATE":null,"OBJECT_NAME":"STARLINK-2109","CENTER_NAME":"EARTH","LAUNCH_DATE":"2021-01-20","GP_ID":"189045588"},{"EPOCH":"2021-11-05T18:12:47.797920","ECCENTRICITY":"0.00015080","OBJECT_TYPE":"PAYLOAD","TLE_LINE2":"2 47389  53.0535 316.6385 0001508  75.6334 284.4822 15.06388995 44437","ELEMENT_SET_NO":"999","MEAN_MOTION_DOT":"-0.00000654","EPHEMERIS_TYPE":"0","MEAN_MOTION_DDOT":"0.0000000000000","REF_FRAME":"TEME","MEAN_ELEMENT_THEORY":"SGP4","INCLINATION":"53.0535","REV_AT_EPOCH":"4443","NORAD_CAT_ID":"47389","MEAN_MOTION":"15.06388995","RA_OF_ASC_NODE":"316.6385","ARG_OF_PERICENTER":"75.6334","PERIOD":"95.593","OBJECT_NAME":"STARLINK-2110","CENTER_NAME":"EARTH","LAUNCH_DATE":"2021-01-20","GP_ID":"189046348","SEMIMAJOR_AXIS":"6925.382","TLE_LINE1":"1 47389U 21005AS  21309.75888655 -.00000654  00000-0 -25012-4 0  9997","APOAPSIS":"548.292","DECAY_DATE":null,"MEAN_ANOMALY":"284.4822","FILE":"3204412","RCS_SIZE":"LARGE","BSTAR":"-0.00002501200000","CLASSIFICATION_TYPE":"U","PERIAPSIS":"546.203","OBJECT_ID":"2021-005AS","TIME_SYSTEM":"UTC","SITE":"AFETR","COUNTRY_CODE":"US"},{"REF_FRAME":"TEME","MEAN_MOTION_DDOT":"0.0000000000000","MEAN_MOTION_DOT":"0.00001224","EPHEMERIS_TYPE":"0","ELEMENT_SET_NO":"999","OBJECT_TYPE":"PAYLOAD","TLE_LINE2":"2 47390  53.0560 336.3672 0001303  73.9645 286.1488 15.06415658 44168","ECCENTRICITY":"0.00013030","EPOCH":"2021-11-05T19:40:19.491456","ARG_OF_PERICENTER":"73.9645","PERIOD":"95.591","RA_OF_ASC_NODE":"336.3672","MEAN_MOTION":"15.06415658","NORAD_CAT_ID":"47390","REV_AT_EPOCH":"4416","INCLINATION":"53.0560","MEAN_ELEMENT_THEORY":"SGP4","DECAY_DATE":null,"TLE_LINE1":"1 47390U 21005AT  21309.81967004  .00001224  00000-0  10100-3 0  9995","APOAPSIS":"548.068","SEMIMAJOR_AXIS":"6925.301","GP_ID":"189046575","LAUNCH_DATE":"2021-01-20","CENTER_NAME":"EARTH","OBJECT_NAME":"STARLINK-2111","COUNTRY_CODE":"US","SITE":"AFETR","TIME_SYSTEM":"UTC","OBJECT_ID":"2021-005AT","PERIAPSIS":"546.263","CLASSIFICATION_TYPE":"U","BSTAR":"0.00010100000000","FILE":"3204412","RCS_SIZE":"LARGE","MEAN_ANOMALY":"286.1488"},{"REF_FRAME":"TEME","MEAN_MOTION_DDOT":"0.0000000000000","MEAN_MOTION_DOT":"0.00005234","EPHEMERIS_TYPE":"0","ELEMENT_SET_NO":"999","OBJECT_TYPE":"PAYLOAD","TLE_LINE2":"2 47391  53.0535 306.9213 0001628  73.8545 286.2624 15.06430379 44567","EPOCH":"2021-11-05T16:42:29.957184","ECCENTRICITY":"0.00016280","ARG_OF_PERICENTER":"73.8545","PERIOD":"95.590","RA_OF_ASC_NODE":"306.9213","MEAN_MOTION":"15.06430379","NORAD_CAT_ID":"47391","REV_AT_EPOCH":"4456","MEAN_ELEMENT_THEORY":"SGP4","INCLINATION":"53.0535","DECAY_DATE":null,"SEMIMAJOR_AXIS":"6925.255","APOAPSIS":"548.248","TLE_LINE1":"1 47391U 21005AU  21309.69618006  .00005234  00000-0  36972-3 0  9997","GP_ID":"189045846","LAUNCH_DATE":"2021-01-20","CENTER_NAME":"EARTH","OBJECT_NAME":"STARLINK-2112","SITE":"AFETR","COUNTRY_CODE":"US","TIME_SYSTEM":"UTC","OBJECT_ID":"2021-005AU","PERIAPSIS":"545.993","CLASSIFICATION_TYPE":"U","BSTAR":"0.00036972000000","MEAN_ANOMALY":"286.2624","RCS_SIZE":"LARGE","FILE":"3204412"},{"OBJECT_NAME":"STARLINK-2113","CENTER_NAME":"EARTH","LAUNCH_DATE":"2021-01-20","GP_ID":"189046088","APOAPSIS":"548.027","TLE_LINE1":"1 47392U 21005AV  21309.69714968 -.00001036  00000-0 -50637-4 0  9995","SEMIMAJOR_AXIS":"6925.323","DECAY_DATE":null,"FILE":"3204412","RCS_SIZE":"LARGE","MEAN_ANOMALY":"291.9635","BSTAR":"-0.00005063700000","CLASSIFICATION_TYPE":"U","PERIAPSIS":"546.349","TIME_SYSTEM":"UTC","OBJECT_ID":"2021-005AV","SITE":"AFETR","COUNTRY_CODE":"US","ECCENTRICITY":"0.00012120","EPOCH":"2021-11-05T16:43:53.732352","OBJECT_TYPE":"PAYLOAD","TLE_LINE2":"2 47392  53.0526 306.9166 0001212  68.1483 291.9635 15.06408351 44562","ELEMENT_SET_NO":"999","EPHEMERIS_TYPE":"0","MEAN_MOTION_DOT":"-0.00001036","REF_FRAME":"TEME","MEAN_MOTION_DDOT":"0.0000000000000","INCLINATION":"53.0526","MEAN_ELEMENT_THEORY":"SGP4","REV_AT_EPOCH":"4456","NORAD_CAT_ID":"47392","RA_OF_ASC_NODE":"306.9166","MEAN_MOTION":"15.06408351","ARG_OF_PERICENTER":"68.1483","PERIOD":"95.592"},{"PERIOD":"95.591","ARG_OF_PERICENTER":"84.8359","RA_OF_ASC_NODE":"281.0807","MEAN_MOTION":"15.06415691","NORAD_CAT_ID":"47393","REV_AT_EPOCH":"4494","MEAN_ELEMENT_THEORY":"SGP4","INCLINATION":"53.0489","MEAN_MOTION_DDOT":"0.0000000000000","REF_FRAME":"TEME","MEAN_MOTION_DOT":"0.00003687","EPHEMERIS_TYPE":"0","ELEMENT_SET_NO":"999","TLE_LINE2":"2 47393  53.0489 281.0807 0001424  84.8359 275.2792 15.06415691 44944","OBJECT_TYPE":"PAYLOAD","EPOCH":"2021-11-05T21:19:10.264800","ECCENTRICITY":"0.00014240","COUNTRY_CODE":"US","SITE":"AFETR","OBJECT_ID":"2021-005AW","TIME_SYSTEM":"UTC","PERIAPSIS":"546.179","CLASSIFICATION_TYPE":"U","BSTAR":"0.00026617000000","MEAN_ANOMALY":"275.2792","RCS_SIZE":"LARGE","FILE":"3204412","DECAY_DATE":null,"SEMIMAJOR_AXIS":"6925.300","TLE_LINE1":"1 47393U 21005AW  21309.88831325  .00003687  00000-0  26617-3 0  9996","APOAPSIS":"548.152","GP_ID":"189046848","LAUNCH_DATE":"2021-01-20","CENTER_NAME":"EARTH","OBJECT_NAME":"STARLINK-2114"}];
